      2.10          N: GNSS NAV DATA                        RINEX VERSION / TYPE
fic2rin                                 04/27/2019 00:19:41 PGM / RUN BY / DATE
                                                            END OF HEADER
16 19  4 26  2  0  0.0-3.540469333529e-05-2.842170943040e-12 0.000000000000e+00
    9.200000000000e+01 7.012500000000e+01 3.898376668750e-09-3.979250990633e-02
    3.814697265625e-06 1.083089981694e-02 6.765127182007e-06 5.153566720963e+03
    4.392000000000e+05 1.173466444016e-07 1.914712990499e+00 1.247972249985e-07
    9.832768105917e-01 2.617187500000e+02 5.699204566403e-01-7.987832725295e-09
    9.643258823294e-11 1.000000000000e+00 2.050000000000e+03 0.000000000000e+00
    2.400000000000e+00 0.000000000000e+00-1.071020960808e-08 9.200000000000e+01
    4.320000000000e+05 4.000000000000e+00
14 19  4 26  2  0  0.0-8.302088826895e-05 1.477928890381e-12 0.000000000000e+00
    7.300000000000e+01 9.000000000000e+00 4.717339353262e-09-1.145130152113e+00
    5.010515451431e-07 1.049854396842e-02 7.143244147301e-06 5.153686334610e+03
    4.392000000000e+05 5.960464477539e-08-1.872884691108e-01 2.793967723846e-07
    9.608503334903e-01 2.433437500000e+02-1.943990517774e+00-8.111766459061e-09
   -1.689356082747e-10 1.000000000000e+00 2.050000000000e+03 0.000000000000e+00
    2.400000000000e+00 0.000000000000e+00-9.778887033463e-09 7.300000000000e+01
    4.320000000000e+05 4.000000000000e+00
30 19  4 26  2  0  0.0-9.324494749308e-05-6.934897101019e-12 0.000000000000e+00
    7.100000000000e+01 3.221875000000e+01 4.901632744107e-09 2.609508699072e+00
    1.665204763412e-06 3.915035515092e-03 7.981434464455e-06 5.153598987579e+03
    4.392000000000e+05-5.215406417847e-08 8.246180432800e-01-4.656612873077e-08
    9.413624974694e-01 2.157187500000e+02-2.992261697722e+00-8.155696860368e-09
   -2.896549224330e-10 1.000000000000e+00 2.050000000000e+03 0.000000000000e+00
    2.400000000000e+00 0.000000000000e+00 3.725290298462e-09 7.100000000000e+01
    4.320000000000e+05 4.000000000000e+00
25 19  4 26  2  0  0.0-7.497416809201e-04-4.206412995700e-12 0.000000000000e+00
    1.040000000000e+02 5.446875000000e+01 4.169459389005e-09 1.504509959393e+00
    2.777203917503e-06 8.443439262919e-03 6.901100277901e-06 5.153727228165e+03
    4.392000000000e+05-1.601874828339e-07 1.831832490239e+00 2.421438694000e-08
    9.703595292208e-01 2.505312500000e+02 8.882417637262e-01-8.040334912222e-09
   -1.071473202588e-12 1.000000000000e+00 2.050000000000e+03 0.000000000000e+00
    2.400000000000e+00 0.000000000000e+00 6.053596735001e-09 1.040000000000e+02
    4.320000000000e+05 4.000000000000e+00
19 19  4 26  2  0  0.0-3.263349644840e-04 4.433786671143e-12 0.000000000000e+00
    5.900000000000e+01-7.593750000000e+00 4.174459597284e-09 1.840897004224e+00
   -5.792826414108e-07 9.556193486787e-03 4.462897777557e-06 5.153634534836e+03
    4.392000000000e+05-1.490116119385e-08 2.975566665941e+00-1.788139343262e-07
    9.821063342252e-01 3.052500000000e+02 1.382798339490e+00-7.949974005471e-09
    1.100045821324e-10 1.000000000000e+00 2.050000000000e+03 0.000000000000e+00
    2.400000000000e+00 0.000000000000e+00-1.536682248116e-08 5.900000000000e+01
    4.320000000000e+05 4.000000000000e+00
11 19  4 26  2  0  0.0-6.192647852004e-04 7.503331289627e-12 0.000000000000e+00
    6.100000000000e+01-6.078125000000e+01 5.785240978508e-09 2.498296329579e+00
   -3.198161721230e-06 1.656402763911e-02 3.561377525330e-06 5.153701000214e+03
    4.392000000000e+05 2.346932888031e-07-2.803456836487e+00-1.303851604462e-08
    9.093944210021e-01 2.814062500000e+02 1.879581064027e+00-8.555713522667e-09
   -8.428922527028e-11 1.000000000000e+00 2.050000000000e+03 0.000000000000e+00
    2.400000000000e+00 0.000000000000e+00-1.257285475731e-08 6.100000000000e+01
    4.320000000000e+05 4.000000000000e+00
10 19  4 26  2  0  0.0 6.322842091322e-05-1.011812855722e-11 0.000000000000e+00
    5.900000000000e+01-2.721875000000e+01 4.569118893571e-09 1.126091645528e+00
   -1.246109604836e-06 4.515648004599e-03 8.936971426010e-06 5.153664285660e+03
    4.392000000000e+05-2.235174179077e-08-1.315476909271e+00 5.029141902924e-08
    9.624361674095e-01 2.083125000000e+02-2.696414105362e+00-7.999261772790e-09
    8.750364487804e-11 1.000000000000e+00 2.050000000000e+03 0.000000000000e+00
    2.400000000000e+00 0.000000000000e+00 1.862645149231e-09 5.900000000000e+01
    4.320000000000e+05 4.000000000000e+00
18 19  4 26  2  0  0.0 4.761712625623e-05 3.410605131648e-12 0.000000000000e+00
    3.100000000000e+01-8.665625000000e+01 4.711981987249e-09 2.956484107967e+00
   -4.481524229050e-06 1.522052858490e-02 6.129965186119e-06 5.153712419510e+03
    4.392000000000e+05 2.179294824600e-07-2.409236829082e+00-1.601874828339e-07
    9.538194072983e-01 2.542187500000e+02 1.384710815221e+00-7.978189466472e-09
   -2.321525272275e-11 1.000000000000e+00 2.050000000000e+03 0.000000000000e+00
    2.400000000000e+00 0.000000000000e+00-5.587935447693e-09 3.100000000000e+01
    4.320000000000e+05 4.000000000000e+00
23 19  4 26  2  0  0.0-1.887348480523e-04 1.591615728103e-12 0.000000000000e+00
    8.400000000000e+01 4.468750000000e+00 4.955206404236e-09-2.306380533550e+00
    7.450580596924e-08 1.313348847907e-02 7.187947630882e-06 5.153593761444e+03
    4.392000000000e+05 1.210719347000e-07-2.846219797165e-01-1.061707735062e-07
    9.435724751467e-01 2.289687500000e+02-2.270195357263e+00-7.966403261244e-09
    7.750322832055e-11 1.000000000000e+00 2.050000000000e+03 0.000000000000e+00
    2.400000000000e+00 0.000000000000e+00-2.048909664154e-08 8.400000000000e+01
    4.320000000000e+05 4.000000000000e+00
21 19  4 26  2  0  0.0-2.050008624792e-04 7.617018127348e-12 0.000000000000e+00
    7.700000000000e+01-7.487500000000e+01 4.923776523627e-09 1.386780358614e+00
   -4.390254616737e-06 2.467850339599e-02 6.206333637238e-06 5.153753913879e+03
    4.392000000000e+05 6.519258022308e-08-2.418217375957e+00-6.631016731262e-07
    9.481445125390e-01 2.574687500000e+02-1.449553624801e+00-8.296417007641e-09
    6.893144269984e-11 1.000000000000e+00 2.050000000000e+03 0.000000000000e+00
    2.400000000000e+00 0.000000000000e+00-1.024454832077e-08 7.700000000000e+01
    4.320000000000e+05 4.000000000000e+00
12 19  4 26  2  0  0.0 2.479949034750e-04-3.410605131648e-12 0.000000000000e+00
    6.200000000000e+01 5.231250000000e+01 3.861232264394e-09 1.840168607072e+00
    2.691522240639e-06 7.657052599825e-03 6.800517439842e-06 5.153661954880e+03
    4.392000000000e+05-1.173466444016e-07 1.895792787173e+00-1.396983861923e-07
    9.829189852182e-01 2.590312500000e+02 1.069387651945e+00-7.823540167565e-09
    7.678891285216e-11 1.000000000000e+00 2.050000000000e+03 0.000000000000e+00
    2.400000000000e+00 0.000000000000e+00-1.210719347000e-08 6.200000000000e+01
    4.320000000000e+05 4.000000000000e+00
32 19  4 26  2  0  0.0-1.155501231551e-04 1.739408617141e-11 0.000000000000e+00
    1.100000000000e+02 6.406250000000e+00 4.819486465242e-09-2.612355781961e-01
    2.402812242508e-07 2.956658136100e-03 6.996095180511e-06 5.153575134277e+03
    4.392000000000e+05 3.166496753693e-08-2.732623213525e-01 6.146728992462e-08
    9.570354688487e-01 2.425000000000e+02-2.527054060116e+00-8.143910655139e-09
   -1.157191058795e-10 1.000000000000e+00 2.050000000000e+03 0.000000000000e+00
    2.400000000000e+00 0.000000000000e+00 4.656612873077e-10 1.100000000000e+02
    4.320000000000e+05 4.000000000000e+00
26 19  4 26  2  0  0.0 1.855753362179e-04 9.777068044059e-12 0.000000000000e+00
    1.030000000000e+02 6.575000000000e+01 4.557332688342e-09 8.750465703449e-01
    3.432855010033e-06 3.739414853044e-03 6.785616278648e-06 5.153596519470e+03
    4.392000000000e+05 2.607703208923e-08 1.803822116272e+00 8.381903171539e-08
    9.516763039951e-01 2.440000000000e+02 1.658209362733e-01-8.138553289126e-09
    3.571577341961e-12 1.000000000000e+00 2.050000000000e+03 0.000000000000e+00
    3.400000000000e+00 0.000000000000e+00 7.450580596924e-09 1.030000000000e+02
    4.320000000000e+05 4.000000000000e+00
20 19  4 26  2  0  0.0 5.242596380413e-04 3.410605131648e-13 0.000000000000e+00
    7.400000000000e+01-3.146875000000e+01 5.277005522747e-09 2.843506600538e+00
   -1.544132828712e-06 4.362499690615e-03 8.564442396164e-06 5.153685140610e+03
    4.392000000000e+05 1.676380634308e-08-1.432955852203e+00 8.568167686462e-08
    9.301346216919e-01 1.985000000000e+02 2.347176704737e+00-8.264272811563e-09
    1.289339420448e-10 1.000000000000e+00 2.050000000000e+03 0.000000000000e+00
    2.400000000000e+00 0.000000000000e+00-8.847564458847e-09 7.400000000000e+01
    4.320000000000e+05 4.000000000000e+00
17 19  4 26  2  0  0.0 4.487484693527e-05 6.025402399246e-12 0.000000000000e+00
    1.830000000000e+02 3.343750000000e+00 4.235890727566e-09-9.747759282215e-01
    4.023313522339e-07 1.284146052785e-02 4.716217517853e-06 5.153733238220e+03
    4.392000000000e+05-2.235174179077e-07 2.929274465136e+00 2.197921276093e-07
    9.842815705239e-01 3.058125000000e+02-1.712921844973e+00-8.197484315269e-09
    1.307197307158e-10 1.000000000000e+00 2.050000000000e+03 0.000000000000e+00
    3.400000000000e+00 0.000000000000e+00-1.117587089539e-08 1.830000000000e+02
    4.320000000000e+05 4.000000000000e+00
 4 19  4 26  2  0  0.0 1.536714844406e-04 4.547473508865e-12 0.000000000000e+00
    1.570000000000e+02 9.000000000000e+00 4.675909056095e-09 2.479146152605e+00
    4.209578037262e-07 3.888558130711e-04 7.452443242073e-06 5.153768400192e+03
    4.392000000000e+05 1.490116119385e-08-2.348717477853e-01 9.313225746155e-09
    9.601552835558e-01 2.333750000000e+02-1.614113635409e+00-7.993547249043e-09
   -6.357407668690e-11 1.000000000000e+00 2.050000000000e+03 0.000000000000e+00
    4.850000000000e+00 6.300000000000e+01-8.847564458847e-09 4.130000000000e+02
    4.320300000000e+05 4.000000000000e+00
